QB50P1                  
1 40025U 14033R   26193.52077436  .00005256  00000+0  25721-3 0  9994
2 40025  98.0964 206.4495 0010219 132.7489 227.4606 15.18640557656877
DTUSAT-2                
1 40030U 14033W   26192.54081605  .00004323  00000+0  23319-3 0  9999
2 40030  98.0873 191.8202 0009024 142.6007 217.5854 15.15323901656371
QB50P2                  
1 40032U 14033Y   26193.45711523  .00004004  00000+0  21528-3 0  9997
2 40032  98.0759 191.9172 0009355  91.3787 268.8515 15.15485152656498
PERSEUS-M1              
1 40039U 14033AF  26193.79298550  .00001273  00000+0  11974-3 0  9990
2 40039  97.9651 138.3475 0010778 204.8282 155.2421 14.95709687654466
POLYITAN-1              
1 40042U 14033AJ  26193.56228347  .00012606  00000+0  38349-3 0  9993
2 40042  98.0940 222.2395 0008123  71.5850 288.6273 15.34156417657480
TIGRISAT                
1 40043U 14033AK  26192.36972540  .00000887  00000+0  10764-3 0  9991
2 40043  97.7858 341.8319 0048956 356.9649   3.1262 14.85242878649215
CANX-4                  
1 40055U 14034C   26193.55050919  .00000432  00000+0  62730-4 0  9991
2 40055  98.3088  69.7910 0011482 292.3453  67.6541 14.81308374648284
CANX-5                  
1 40056U 14034D   26193.14335945  .00000459  00000+0  66166-4 0  9998
2 40056  98.3091  69.4141 0011493 293.9901  66.0106 14.81325415639037
GONETS-M 10             
1 40063U 14036C   26193.82831676  .00000046  00000+0  25945-3 0  9996
2 40063  82.5122 291.7490 0022983  87.3640 273.0070 12.42946308545438
METEOR-M 2              
1 40069U 14037A   26193.90828465  .00000191  00000+0  10640-3 0  9991
2 40069  98.5123 168.7372 0005281 334.3901  25.7015 14.21469489622976
DX1                     
1 40071U 14037C   26193.87987712  .00000482  00000+0  56457-4 0  9991
2 40071  98.3875 157.1439 0006807 176.6929 183.4333 14.90059076649932
UKUBE-1                 
1 40074U 14037F   26193.81589728  .00005144  00000+0  28821-3 0  9996
2 40074  98.4241 199.7883 0003316  92.8928 267.2681 15.13929768652434
GAOFEN-2                
1 40118U 14049A   26193.85183014 -.00000322  00000+0 -34684-4 0  9990
2 40118  98.0104 258.0330 0008074 141.2599 218.9193 14.80923198643033
BRITE-PL2 (HEWELIUSZ)   
1 40119U 14049B   26193.74610884  .00000856  00000+0  84332-4 0  9994
2 40119  97.9118 305.9469 0014565  30.2363 329.9695 14.94683534645269
CBERS 4                 
1 40336U 14079A   26193.89657142 -.00000063  00000+0 -71504-5 0  9992
2 40336  98.3526 249.9196 0000886  53.1641 306.9626 14.35515124607649
SMAP                    
1 40376U 15003A   26193.85758171  .00000211  00000+0  49877-4 0  9994
2 40376  98.1283 200.5891 0001581  95.7393 264.3989 14.63388029611372
GONETS-M 11             
1 40552U 15020A   26193.84807508  .00000091  00000+0  58684-3 0  9998
2 40552  82.4864  14.9990 0015465 308.7135  51.2561 12.42878597511921
GONETS-M 12             
1 40553U 15020B   26193.90178681  .00000040  00000+0  21602-3 0  9993
2 40553  82.4897  16.0961 0014307 292.6346  67.3220 12.42892068511927
GONETS-M 13             
1 40554U 15020C   26193.87569727  .00000034  00000+0  17558-3 0  9993
2 40554  82.4859  14.7199 0012807 276.5681  83.3940 12.42871778511898
DMC3-FM1                
1 40715U 15032A   26193.79737580  .00000650  00000+0  80682-4 0  9993
2 40715  97.6441  57.9649 0005115 347.0249  13.0835 14.85768111593718
DMC3-FM2                
1 40716U 15032B   26193.88667036 -.00000309  00000+0 -29666-4 0  9990
2 40716  97.6495  59.6418 0005795 350.4309   9.6795 14.85770617593721
DMC3-FM3                
1 40717U 15032C   26193.84283654  .00000070  00000+0  13970-4 0  9991
2 40717  97.6544  61.3686 0005017 352.1976   7.9160 14.85759583593726
CARBONITE 1 (CBNT-1)    
1 40718U 15032D   26193.81120719  .00000947  00000+0  12065-3 0  9997
2 40718  97.6518  10.8077 0013620 205.1882 154.8670 14.83664590593148
LILACSAT-2              
1 40908U 15049K   26193.87102991  .00013885  00000+0  22957-3 0  9990
2 40908  97.4629 231.6990 0008281 148.3423 211.8329 15.52304289599732
COSMOS 2507 (RODNIK-S *)
1 40920U 15050A   26193.82945069 -.00000013  00000+0 -16277-3 0  9991
2 40920  82.4916  63.7037 0009113 299.1338  60.8829 12.42927039490041
COSMOS 2508 (RODNIK-S *)
1 40921U 15050B   26193.86520800 -.00000012  00000+0 -15550-3 0  9990
2 40921  82.4869  62.1766 0014059 332.1140  27.9185 12.42914629490034
